STARLINK-36197          
1 67205U 25304P   26002.94648718 -.00833441  00000+0 -10455-1 0  9991
2 67205  70.0018 347.5670 0002427 239.5021 120.5932 15.61788504  3827
STARLINK-36056          
1 67206U 25304Q   26002.94613095 -.00983530  00000+0 -12578-1 0  9995
2 67206  69.9971 347.5624 0005032 261.6836  98.3785 15.61670502  3823
STARLINK-36225          
1 67207U 25304R   26003.00987009 -.00636057  00000+0 -79512-2 0  9994
2 67207  70.0002 347.3859 0003606 266.8928  93.1851 15.61638761  3866
STARLINK-36265          
1 67208U 25304S   26003.13774972 -.00037146  00000+0 -43664-3 0  9996
2 67208  69.9992 347.0287 0006351 336.6099  23.4802 15.61210526  3888
STARLINK-36226          
1 67209U 25304T   26002.94512407 -.00859128  00000+0 -10812-1 0  9997
2 67209  70.0016 347.5619 0002262 243.3126 116.7834 15.61777599  3851
STARLINK-36173          
1 67210U 25304U   26002.94478138 -.00773832  00000+0 -97699-2 0  9997
2 67210  69.9999 347.5596 0003926 265.2731  94.8012 15.61815297  3859
STARLINK-36280          
1 67211U 25304V   26002.94443280 -.00418346  00000+0 -50150-2 0  9995
2 67211  69.9984 347.5553 0004120 169.8644 190.2631 15.62032218  3859
STARLINK-36213          
1 67212U 25304W   26003.13608945 -.01444331  00000+0 -18457-1 0  9996
2 67212  69.9997 347.0223 0006853 244.6856 115.3626 15.61825607  3881
STARLINK-36199          
1 67213U 25304X   26003.00621201  .02447114  00000+0  17696-1 0  9998
2 67213  69.9999 347.3713 0031343 230.7906 129.0506 15.69173707  3867
STARLINK-36203          
1 67214U 25304Y   26002.94342712 -.01018116  00000+0 -13084-1 0  9992
2 67214  69.9998 347.5545 0003224 267.8812  92.2010 15.61660574  3851
STARLINK-36221          
1 67215U 25304Z   26003.07089646  .05263592  00000+0  45280-1 0  9997
2 67215  69.9999 347.1958 0008400 292.1240  67.9061 15.64754392  3876
STARLINK-36212          
1 67216U 25304AA  26002.94240030  .00297352  00000+0  30780-2 0  9995
2 67216  70.0002 347.5506 0011685 227.4769 132.5438 15.63537687  3854
