CCSDS_OMM_VERS = 2.0
CREATION_DATE  = 
ORIGINATOR     = 

OBJECT_NAME    = STARLINK-36197
OBJECT_ID      = 2025-304P
CENTER_NAME    = EARTH
REF_FRAME      = TEME
TIME_SYSTEM    = UTC
MEAN_ELEMENT_THEORY = SGP/SGP4

EPOCH          = 2026-01-02T22:42:56.492352
MEAN_MOTION    = 15.61788504
ECCENTRICITY   = .0002427
INCLINATION    = 70.0018
RA_OF_ASC_NODE = 347.5670
ARG_OF_PERICENTER = 239.5021
MEAN_ANOMALY   = 120.5932

EPHEMERIS_TYPE = 0
CLASSIFICATION_TYPE = U
NORAD_CAT_ID   = 67205
ELEMENT_SET_NO = 999
REV_AT_EPOCH   = 382
BSTAR          = -.10455E-1
MEAN_MOTION_DOT = -.833441E-2
MEAN_MOTION_DDOT = 0

CCSDS_OMM_VERS = 2.0
CREATION_DATE  = 
ORIGINATOR     = 

OBJECT_NAME    = STARLINK-36056
OBJECT_ID      = 2025-304Q
CENTER_NAME    = EARTH
REF_FRAME      = TEME
TIME_SYSTEM    = UTC
MEAN_ELEMENT_THEORY = SGP/SGP4

EPOCH          = 2026-01-02T22:42:25.714080
MEAN_MOTION    = 15.61670502
ECCENTRICITY   = .0005032
INCLINATION    = 69.9971
RA_OF_ASC_NODE = 347.5624
ARG_OF_PERICENTER = 261.6836
MEAN_ANOMALY   = 98.3785

EPHEMERIS_TYPE = 0
CLASSIFICATION_TYPE = U
NORAD_CAT_ID   = 67206
ELEMENT_SET_NO = 999
REV_AT_EPOCH   = 382
BSTAR          = -.12578E-1
MEAN_MOTION_DOT = -.98353E-2
MEAN_MOTION_DDOT = 0

CCSDS_OMM_VERS = 2.0
CREATION_DATE  = 
ORIGINATOR     = 

OBJECT_NAME    = STARLINK-36225
OBJECT_ID      = 2025-304R
CENTER_NAME    = EARTH
REF_FRAME      = TEME
TIME_SYSTEM    = UTC
MEAN_ELEMENT_THEORY = SGP/SGP4

EPOCH          = 2026-01-03T00:14:12.775776
MEAN_MOTION    = 15.61638761
ECCENTRICITY   = .0003606
INCLINATION    = 70.0002
RA_OF_ASC_NODE = 347.3859
ARG_OF_PERICENTER = 266.8928
MEAN_ANOMALY   = 93.1851

EPHEMERIS_TYPE = 0
CLASSIFICATION_TYPE = U
NORAD_CAT_ID   = 67207
ELEMENT_SET_NO = 999
REV_AT_EPOCH   = 386
BSTAR          = -.79512E-2
MEAN_MOTION_DOT = -.636057E-2
MEAN_MOTION_DDOT = 0

CCSDS_OMM_VERS = 2.0
CREATION_DATE  = 
ORIGINATOR     = 

OBJECT_NAME    = STARLINK-36265
OBJECT_ID      = 2025-304S
CENTER_NAME    = EARTH
REF_FRAME      = TEME
TIME_SYSTEM    = UTC
MEAN_ELEMENT_THEORY = SGP/SGP4

EPOCH          = 2026-01-03T03:18:21.575808
MEAN_MOTION    = 15.61210526
ECCENTRICITY   = .0006351
INCLINATION    = 69.9992
RA_OF_ASC_NODE = 347.0287
ARG_OF_PERICENTER = 336.6099
MEAN_ANOMALY   = 23.4802

EPHEMERIS_TYPE = 0
CLASSIFICATION_TYPE = U
NORAD_CAT_ID   = 67208
ELEMENT_SET_NO = 999
REV_AT_EPOCH   = 388
BSTAR          = -.43664E-3
MEAN_MOTION_DOT = -.37146E-3
MEAN_MOTION_DDOT = 0

CCSDS_OMM_VERS = 2.0
CREATION_DATE  = 
ORIGINATOR     = 

OBJECT_NAME    = STARLINK-36226
OBJECT_ID      = 2025-304T
CENTER_NAME    = EARTH
REF_FRAME      = TEME
TIME_SYSTEM    = UTC
MEAN_ELEMENT_THEORY = SGP/SGP4

EPOCH          = 2026-01-02T22:40:58.719648
MEAN_MOTION    = 15.61777599
ECCENTRICITY   = .0002262
INCLINATION    = 70.0016
RA_OF_ASC_NODE = 347.5619
ARG_OF_PERICENTER = 243.3126
MEAN_ANOMALY   = 116.7834

EPHEMERIS_TYPE = 0
CLASSIFICATION_TYPE = U
NORAD_CAT_ID   = 67209
ELEMENT_SET_NO = 999
REV_AT_EPOCH   = 385
BSTAR          = -.10812E-1
MEAN_MOTION_DOT = -.859128E-2
MEAN_MOTION_DDOT = 0

CCSDS_OMM_VERS = 2.0
CREATION_DATE  = 
ORIGINATOR     = 

OBJECT_NAME    = STARLINK-36173
OBJECT_ID      = 2025-304U
CENTER_NAME    = EARTH
REF_FRAME      = TEME
TIME_SYSTEM    = UTC
MEAN_ELEMENT_THEORY = SGP/SGP4

EPOCH          = 2026-01-02T22:40:29.111232
MEAN_MOTION    = 15.61815297
ECCENTRICITY   = .0003926
INCLINATION    = 69.9999
RA_OF_ASC_NODE = 347.5596
ARG_OF_PERICENTER = 265.2731
MEAN_ANOMALY   = 94.8012

EPHEMERIS_TYPE = 0
CLASSIFICATION_TYPE = U
NORAD_CAT_ID   = 67210
ELEMENT_SET_NO = 999
REV_AT_EPOCH   = 385
BSTAR          = -.97699E-2
MEAN_MOTION_DOT = -.773832E-2
MEAN_MOTION_DDOT = 0

CCSDS_OMM_VERS = 2.0
CREATION_DATE  = 
ORIGINATOR     = 

OBJECT_NAME    = STARLINK-36280
OBJECT_ID      = 2025-304V
CENTER_NAME    = EARTH
REF_FRAME      = TEME
TIME_SYSTEM    = UTC
MEAN_ELEMENT_THEORY = SGP/SGP4

EPOCH          = 2026-01-02T22:39:58.993920
MEAN_MOTION    = 15.62032218
ECCENTRICITY   = .000412
INCLINATION    = 69.9984
RA_OF_ASC_NODE = 347.5553
ARG_OF_PERICENTER = 169.8644
MEAN_ANOMALY   = 190.2631

EPHEMERIS_TYPE = 0
CLASSIFICATION_TYPE = U
NORAD_CAT_ID   = 67211
ELEMENT_SET_NO = 999
REV_AT_EPOCH   = 385
BSTAR          = -.5015E-2
MEAN_MOTION_DOT = -.418346E-2
MEAN_MOTION_DDOT = 0

CCSDS_OMM_VERS = 2.0
CREATION_DATE  = 
ORIGINATOR     = 

OBJECT_NAME    = STARLINK-36213
OBJECT_ID      = 2025-304W
CENTER_NAME    = EARTH
REF_FRAME      = TEME
TIME_SYSTEM    = UTC
MEAN_ELEMENT_THEORY = SGP/SGP4

EPOCH          = 2026-01-03T03:15:58.128480
MEAN_MOTION    = 15.61825607
ECCENTRICITY   = .0006853
INCLINATION    = 69.9997
RA_OF_ASC_NODE = 347.0223
ARG_OF_PERICENTER = 244.6856
MEAN_ANOMALY   = 115.3626

EPHEMERIS_TYPE = 0
CLASSIFICATION_TYPE = U
NORAD_CAT_ID   = 67212
ELEMENT_SET_NO = 999
REV_AT_EPOCH   = 388
BSTAR          = -.18457E-1
MEAN_MOTION_DOT = -.1444331E-1
MEAN_MOTION_DDOT = 0

CCSDS_OMM_VERS = 2.0
CREATION_DATE  = 
ORIGINATOR     = 

OBJECT_NAME    = STARLINK-36199
OBJECT_ID      = 2025-304X
CENTER_NAME    = EARTH
REF_FRAME      = TEME
TIME_SYSTEM    = UTC
MEAN_ELEMENT_THEORY = SGP/SGP4

EPOCH          = 2026-01-03T00:08:56.717664
MEAN_MOTION    = 15.69173707
ECCENTRICITY   = .0031343
INCLINATION    = 69.9999
RA_OF_ASC_NODE = 347.3713
ARG_OF_PERICENTER = 230.7906
MEAN_ANOMALY   = 129.0506

EPHEMERIS_TYPE = 0
CLASSIFICATION_TYPE = U
NORAD_CAT_ID   = 67213
ELEMENT_SET_NO = 999
REV_AT_EPOCH   = 386
BSTAR          = .17696E-1
MEAN_MOTION_DOT = .2447114E-1
MEAN_MOTION_DDOT = 0

CCSDS_OMM_VERS = 2.0
CREATION_DATE  = 
ORIGINATOR     = 

OBJECT_NAME    = STARLINK-36203
OBJECT_ID      = 2025-304Y
CENTER_NAME    = EARTH
REF_FRAME      = TEME
TIME_SYSTEM    = UTC
MEAN_ELEMENT_THEORY = SGP/SGP4

EPOCH          = 2026-01-02T22:38:32.103168
MEAN_MOTION    = 15.61660574
ECCENTRICITY   = .0003224
INCLINATION    = 69.9998
RA_OF_ASC_NODE = 347.5545
ARG_OF_PERICENTER = 267.8812
MEAN_ANOMALY   = 92.2010

EPHEMERIS_TYPE = 0
CLASSIFICATION_TYPE = U
NORAD_CAT_ID   = 67214
ELEMENT_SET_NO = 999
REV_AT_EPOCH   = 385
BSTAR          = -.13084E-1
MEAN_MOTION_DOT = -.1018116E-1
MEAN_MOTION_DDOT = 0

CCSDS_OMM_VERS = 2.0
CREATION_DATE  = 
ORIGINATOR     = 

OBJECT_NAME    = STARLINK-36221
OBJECT_ID      = 2025-304Z
CENTER_NAME    = EARTH
REF_FRAME      = TEME
TIME_SYSTEM    = UTC
MEAN_ELEMENT_THEORY = SGP/SGP4

EPOCH          = 2026-01-03T01:42:05.454144
MEAN_MOTION    = 15.64754392
ECCENTRICITY   = .00084
INCLINATION    = 69.9999
RA_OF_ASC_NODE = 347.1958
ARG_OF_PERICENTER = 292.1240
MEAN_ANOMALY   = 67.9061

EPHEMERIS_TYPE = 0
CLASSIFICATION_TYPE = U
NORAD_CAT_ID   = 67215
ELEMENT_SET_NO = 999
REV_AT_EPOCH   = 387
BSTAR          = .4528E-1
MEAN_MOTION_DOT = .5263592E-1
MEAN_MOTION_DDOT = 0

CCSDS_OMM_VERS = 2.0
CREATION_DATE  = 
ORIGINATOR     = 

OBJECT_NAME    = STARLINK-36212
OBJECT_ID      = 2025-304AA
CENTER_NAME    = EARTH
REF_FRAME      = TEME
TIME_SYSTEM    = UTC
MEAN_ELEMENT_THEORY = SGP/SGP4

EPOCH          = 2026-01-02T22:37:03.385920
MEAN_MOTION    = 15.63537687
ECCENTRICITY   = .0011685
INCLINATION    = 70.0002
RA_OF_ASC_NODE = 347.5506
ARG_OF_PERICENTER = 227.4769
MEAN_ANOMALY   = 132.5438

EPHEMERIS_TYPE = 0
CLASSIFICATION_TYPE = U
NORAD_CAT_ID   = 67216
ELEMENT_SET_NO = 999
REV_AT_EPOCH   = 385
BSTAR          = .3078E-2
MEAN_MOTION_DOT = .297352E-2
MEAN_MOTION_DDOT = 0

